[{"OBJECT_NAME":"VSP RF B1","OBJECT_ID":"2024-043AR","EPOCH":"2026-03-09T22:40:29.479296","MEAN_MOTION":15.26694159,"ECCENTRICITY":0.00102608,"INCLINATION":97.5446,"RA_OF_ASC_NODE":204.7052,"ARG_OF_PERICENTER":220.7435,"MEAN_ANOMALY":139.3037,"EPHEMERIS_TYPE":0,"CLASSIFICATION_TYPE":"U","NORAD_CAT_ID":59137,"ELEMENT_SET_NO":999,"REV_AT_EPOCH":11187,"BSTAR":0.00024406819,"MEAN_MOTION_DOT":6.341e-5,"MEAN_MOTION_DDOT":0},{"OBJECT_NAME":"STARLINK-32904","OBJECT_ID":"2025-048R","EPOCH":"2026-03-09T02:02:07.031040","MEAN_MOTION":15.27597993,"ECCENTRICITY":3.384e-5,"INCLINATION":43,"RA_OF_ASC_NODE":88.3889,"ARG_OF_PERICENTER":347.1742,"MEAN_ANOMALY":12.9101,"EPHEMERIS_TYPE":0,"CLASSIFICATION_TYPE":"U","NORAD_CAT_ID":63198,"ELEMENT_SET_NO":999,"REV_AT_EPOCH":5700,"BSTAR":0.0012396323,"MEAN_MOTION_DOT":0.00034026,"MEAN_MOTION_DDOT":0}]
